STARLINK-2047
1 47355U 21005G   26061.16668981  .00056060  00000+0  30014-2 0  9998
2 47355  53.0865  45.2393 0002469  73.7780  49.8943 15.14509681  5677
